*******************************************************************************
JPL/HORIZONS               65803 Didymos (1996 GT)         2019-May-31 22:49:53
Rec #:   65803 (+COV) Soln.date: 2019-May-08_10:45:04    # obs: 932 (1996-2019)
 
IAU76/J2000 helio. ecliptic osc. elements (au, days, deg., period=Julian yrs):
 
  EPOCH=  2456013.5 ! 2012-Mar-27.00 (TDB)         Residual RMS= .24765
   EC= .383932031784022    QR= 1.013006788447472   TP= 2456023.1070725848
   OM= 73.23923913119975   W=  319.2450713457229   IN= 3.408085041536477
   A= 1.644310109777266    MA= 355.5092430015924   ADIST= 2.27561343110706
   PER= 2.10855            N= .467442796           ANGMOM= .020367841
   DAN= 1.08607            DDN= 1.97687            L= 32.5344683
   B= -2.2241292           MOID= .0391632          TP= 2012-Apr-05.6070725848
 
Asteroid physical parameters (km, seconds, rotational period in hours):
   GM= n.a.                RAD= .390               ROTPER= 2.2593
   H= 18.                  G= .150                 B-V= n.a.
                           ALBEDO= n.a.            STYP= Xk
 
ASTEROID comments: 
1: soln ref.= JPL#147, PHA  OCC=0       radar( 6 delay, 0 Dop.)
2: source=ORB
*******************************************************************************
 
 
*******************************************************************************
Ephemeris / WWW_USER Fri May 31 22:49:53 2019 Pasadena, USA      / Horizons    
*******************************************************************************
Target body name: 65803 Didymos (1996 GT)         {source: JPL#147}
Center body name: Sun (10)                        {source: DE431}
Center-site name: BODY CENTER
*******************************************************************************
Start time      : A.D. 2021-May-31 00:00:00.0000 TDB
Stop  time      : A.D. 2023-Oct-30 00:00:00.0000 TDB
Step-size       : 60 minutes
*******************************************************************************
Center geodetic : 0.00000000,0.00000000,0.0000000 {E-lon(deg),Lat(deg),Alt(km)}
Center cylindric: 0.00000000,0.00000000,0.0000000 {E-lon(deg),Dxy(km),Dz(km)}
Center radii    : 696000.0 x 696000.0 x 696000.0 k{Equator, meridian, pole}    
Small perturbers: Yes                             {source: SB431-N16}
Output units    : AU-D                                                         
Output type     : GEOMETRIC cartesian states
Output format   : 5 (velocity only)
Reference frame : ICRF/J2000.0                                                 
Coordinate systm: Ecliptic and Mean Equinox of Reference Epoch                 
*******************************************************************************
Initial IAU76/J2000 heliocentric ecliptic osculating elements (au, days, deg.):
  EPOCH=  2456013.5 ! 2012-Mar-27.00 (TDB)         Residual RMS= .24765        
   EC= .383932031784022    QR= 1.013006788447472   TP= 2456023.1070725848      
   OM= 73.23923913119975   W=  319.2450713457229   IN= 3.408085041536477       
  Equivalent ICRF heliocentric equatorial cartesian coordinates (au, au/d):
   X= 9.452757260840041E-01  Y= 3.630414712776509E-01  Z= 1.056692131862901E-01
  VX=-8.320494994536893E-03 VY= 1.639151740659619E-02 VZ= 7.964522416351854E-03
Asteroid physical parameters (km, seconds, rotational period in hours):        
   GM= n.a.                RAD= .390               ROTPER= 2.2593              
   H= 18.                  G= .150                 B-V= n.a.                   
                           ALBEDO= n.a.            STYP= Xk                    
*******************************************************************************
JDTDB
   VX    VY    VZ
*******************************************************************************
$$SOE
2459590.708333333 = A.D. 2022-Jan-11 05:00:00.0000 TDB 
   9.056197745704193E-03 -3.378329420400205E-03 -5.744295991790596E-04
2459590.750000000 = A.D. 2022-Jan-11 06:00:00.0000 TDB 
   9.057664173768493E-03 -3.376137330987958E-03 -5.744754637987016E-04
2459590.791666667 = A.D. 2022-Jan-11 07:00:00.0000 TDB 
   9.059130331376343E-03 -3.373944786152270E-03 -5.745213051632928E-04
2459590.833333333 = A.D. 2022-Jan-11 08:00:00.0000 TDB 
   9.060596218445800E-03 -3.371751785793229E-03 -5.745671232664424E-04
2459590.875000000 = A.D. 2022-Jan-11 09:00:00.0000 TDB 
   9.062061834894849E-03 -3.369558329810873E-03 -5.746129181017555E-04
2459590.916666667 = A.D. 2022-Jan-11 10:00:00.0000 TDB 
   9.063527180641347E-03 -3.367364418105258E-03 -5.746586896628301E-04
2459590.958333333 = A.D. 2022-Jan-11 11:00:00.0000 TDB 
   9.064992255603138E-03 -3.365170050576326E-03 -5.747044379432604E-04
2459591.000000000 = A.D. 2022-Jan-11 12:00:00.0000 TDB 
   9.066457059697984E-03 -3.362975227123966E-03 -5.747501629366351E-04
2459591.041666667 = A.D. 2022-Jan-11 13:00:00.0000 TDB 
   9.067921592843531E-03 -3.360779947647915E-03 -5.747958646365284E-04
2459591.083333333 = A.D. 2022-Jan-11 14:00:00.0000 TDB 
   9.069385854957392E-03 -3.358584212048313E-03 -5.748415430365338E-04
2459591.125000000 = A.D. 2022-Jan-11 15:00:00.0000 TDB 
   9.070849845957117E-03 -3.356388020224728E-03 -5.748871981302158E-04
2459591.166666667 = A.D. 2022-Jan-11 16:00:00.0000 TDB 
   9.072313565760123E-03 -3.354191372076925E-03 -5.749328299111408E-04
2459591.208333333 = A.D. 2022-Jan-11 17:00:00.0000 TDB 
   9.073777014283814E-03 -3.351994267504547E-03 -5.749784383728713E-04
2459591.250000000 = A.D. 2022-Jan-11 18:00:00.0000 TDB 
   9.075240191445509E-03 -3.349796706407190E-03 -5.750240235089630E-04
2459591.291666667 = A.D. 2022-Jan-11 19:00:00.0000 TDB 
   9.076703097162415E-03 -3.347598688684467E-03 -5.750695853129666E-04
2459591.333333333 = A.D. 2022-Jan-11 20:00:00.0000 TDB 
   9.078165731351711E-03 -3.345400214235877E-03 -5.751151237784275E-04
2459591.375000000 = A.D. 2022-Jan-11 21:00:00.0000 TDB 
   9.079628093930489E-03 -3.343201282960865E-03 -5.751606388988863E-04
2459591.416666667 = A.D. 2022-Jan-11 22:00:00.0000 TDB 
   9.081090184815737E-03 -3.341001894758902E-03 -5.752061306678769E-04
2459591.458333333 = A.D. 2022-Jan-11 23:00:00.0000 TDB 
   9.082552003924412E-03 -3.338802049529333E-03 -5.752515990789294E-04
2459591.500000000 = A.D. 2022-Jan-12 00:00:00.0000 TDB 
   9.084013551173387E-03 -3.336601747171460E-03 -5.752970441255674E-04
2459591.541666667 = A.D. 2022-Jan-12 01:00:00.0000 TDB 
   9.085474826479424E-03 -3.334400987584603E-03 -5.753424658013084E-04
2459591.583333333 = A.D. 2022-Jan-12 02:00:00.0000 TDB 
   9.086935829759259E-03 -3.332199770667961E-03 -5.753878640996664E-04
2459591.625000000 = A.D. 2022-Jan-12 03:00:00.0000 TDB 
   9.088396560929538E-03 -3.329998096320686E-03 -5.754332390141499E-04
2459591.666666667 = A.D. 2022-Jan-12 04:00:00.0000 TDB 
   9.089857019906805E-03 -3.327795964441953E-03 -5.754785905382592E-04
2459591.708333333 = A.D. 2022-Jan-12 05:00:00.0000 TDB 
   9.091317206607562E-03 -3.325593374930813E-03 -5.755239186654922E-04
2459591.750000000 = A.D. 2022-Jan-12 06:00:00.0000 TDB 
   9.092777120948244E-03 -3.323390327686269E-03 -5.755692233893402E-04
2459591.791666667 = A.D. 2022-Jan-12 07:00:00.0000 TDB 
   9.094236762845166E-03 -3.321186822607348E-03 -5.756145047032881E-04
2459591.833333333 = A.D. 2022-Jan-12 08:00:00.0000 TDB 
   9.095696132214602E-03 -3.318982859592954E-03 -5.756597626008175E-04
2459591.875000000 = A.D. 2022-Jan-12 09:00:00.0000 TDB 
   9.097155228972767E-03 -3.316778438541942E-03 -5.757049970754033E-04
2459591.916666667 = A.D. 2022-Jan-12 10:00:00.0000 TDB 
   9.098614053035747E-03 -3.314573559353191E-03 -5.757502081205140E-04
2459591.958333333 = A.D. 2022-Jan-12 11:00:00.0000 TDB 
   9.100072604319592E-03 -3.312368221925458E-03 -5.757953957296145E-04
2459592.000000000 = A.D. 2022-Jan-12 12:00:00.0000 TDB 
   9.101530882740291E-03 -3.310162426157450E-03 -5.758405598961632E-04
2459592.041666667 = A.D. 2022-Jan-12 13:00:00.0000 TDB 
   9.102988888213702E-03 -3.307956171947898E-03 -5.758857006136130E-04
2459592.083333333 = A.D. 2022-Jan-12 14:00:00.0000 TDB 
   9.104446620655656E-03 -3.305749459195411E-03 -5.759308178754109E-04
2459592.125000000 = A.D. 2022-Jan-12 15:00:00.0000 TDB 
   9.105904079981905E-03 -3.303542287798550E-03 -5.759759116750006E-04
2459592.166666667 = A.D. 2022-Jan-12 16:00:00.0000 TDB 
   9.107361266108087E-03 -3.301334657655897E-03 -5.760209820058167E-04
2459592.208333333 = A.D. 2022-Jan-12 17:00:00.0000 TDB 
   9.108818178949804E-03 -3.299126568665914E-03 -5.760660288612915E-04
2459592.250000000 = A.D. 2022-Jan-12 18:00:00.0000 TDB 
   9.110274818422585E-03 -3.296918020727012E-03 -5.761110522348508E-04
2459592.291666667 = A.D. 2022-Jan-12 19:00:00.0000 TDB 
   9.111731184441831E-03 -3.294709013737629E-03 -5.761560521199134E-04
2459592.333333333 = A.D. 2022-Jan-12 20:00:00.0000 TDB 
   9.113187276922924E-03 -3.292499547596076E-03 -5.762010285098950E-04
2459592.375000000 = A.D. 2022-Jan-12 21:00:00.0000 TDB 
   9.114643095781161E-03 -3.290289622200621E-03 -5.762459813982041E-04
2459592.416666667 = A.D. 2022-Jan-12 22:00:00.0000 TDB 
   9.116098640931717E-03 -3.288079237449550E-03 -5.762909107782439E-04
2459592.458333333 = A.D. 2022-Jan-12 23:00:00.0000 TDB 
   9.117553912289742E-03 -3.285868393241029E-03 -5.763358166434124E-04
2459592.500000000 = A.D. 2022-Jan-13 00:00:00.0000 TDB 
   9.119008909770306E-03 -3.283657089473177E-03 -5.763806989871027E-04
2459592.541666667 = A.D. 2022-Jan-13 01:00:00.0000 TDB 
   9.120463633288355E-03 -3.281445326044133E-03 -5.764255578027005E-04
2459592.583333333 = A.D. 2022-Jan-13 02:00:00.0000 TDB 
   9.121918082758806E-03 -3.279233102851918E-03 -5.764703930835880E-04
2459592.625000000 = A.D. 2022-Jan-13 03:00:00.0000 TDB 
   9.123372258096505E-03 -3.277020419794500E-03 -5.765152048231402E-04
